1 19531U 88089A   98169.42242256  .00000043  00000-0  47498-4 0  4383
2 19531  99.1099 214.7694 0012085 351.7545   8.3427 14.13191443501727
1 19531U 88089A   98169.84722808  .00000024  00000-0  37697-4 0  4238
2 19531  99.1099 215.2016 0012043 350.6168   9.4769 14.13191335501781
1 19531U 88089A   98169.84722808  .00000024  00000-0  37697-4 0  4463
2 19531  99.1099 215.2016 0012043 350.6168   9.4769 14.13191335501781
1 19531U 88089A   98170.13043188  .00000021  00000-0  35886-4 0  4313
2 19531  99.1100 215.4898 0012035 349.8353  10.2573 14.13191338501822
1 19531U 88089A   98170.41363575  .00000007  00000-0  28359-4 0  4365
2 19531  99.1100 215.7778 0012044 348.9722  11.1184 14.13191240501866
1 19531U 88089A   98170.83844138 -.00000014  00000-0  17224-4 0  4447
2 19531  99.1100 216.2100 0012004 347.8355  12.2515 14.13191074501929
1 19531U 88089A   98170.90924249 -.00000012  00000-0  18447-4 0  4241
2 19531  99.1100 216.2820 0012004 347.6155  12.4723 14.13191101501939
1 19531U 88089A   98170.98004334 -.00000012  00000-0  18183-4 0  4251
2 19531  99.1100 216.3541 0012003 347.4175  12.6695 14.13191102501941
1 19531U 88089A   98171.19244605 -.00000015  00000-0  16715-4 0  4322
2 19531  99.1100 216.5704 0011994 346.8544  13.2308 14.13191079501979
1 19531U 88089A   98171.47564966 -.00000010  00000-0  19330-4 0  4318
2 19531  99.1100 216.8585 0011976 346.1395  13.9445 14.13191146502016
1 19531U 88089A   98171.75885342 -.00000015  00000-0  16889-4 0  4415
2 19531  99.1099 217.1465 0011931 345.4304  14.6523 14.13191123502051
1 19531U 88089A   98171.82965428 -.00000018  00000-0  15173-4 0  4279
2 19531  99.1099 217.2185 0011919 345.2609  14.8209 14.13191092502062
1 19531U 88089A   98172.32526039 -.00000004  00000-0  22662-4 0  4373
2 19531  99.1099 217.7229 0011940 343.7655  16.3132 14.13191265502136
1 19531U 88089A   98172.46686199  .00000009  00000-0  29512-4 0  4401
2 19531  99.1099 217.8668 0011913 343.5248  16.5537 14.13191405502159
1 19531U 88089A   98172.82086626  .00000013  00000-0  31908-4 0  4564
2 19531  99.1098 218.2269 0011814 342.7353  17.3414 14.13191487502207
1 19531U 88089A   98172.89166719  .00000014  00000-0  32051-4 0  4283
2 19531  99.1098 218.2989 0011814 342.5210  17.5554 14.13191499502217
1 19531U 88089A   98173.17487026  .00000037  00000-0  44617-4 0  4378
2 19531  99.1099 218.5875 0011837 341.4956  18.5790 14.13191754502256
1 19531U 88089A   98173.45807363  .00000043  00000-0  47602-4 0  4429
2 19531  99.1098 218.8756 0011838 340.7525  19.3201 14.13191858502296
1 19531U 88089A   98173.81207780  .00000043  00000-0  47534-4 0  4521
2 19531  99.1098 219.2356 0011769 339.9014  20.1686 14.13191923502349
1 19531U 88089A   98174.23688288  .00000055  00000-0  54120-4 0  4582
2 19531  99.1098 219.6680 0011790 338.6474  21.4204 14.13192117502406
1 19531U 88089A   98174.44928544  .00000061  00000-0  57238-4 0  4341
2 19531  99.1097 219.8839 0011773 338.1588  21.9082 14.13192218502439
1 19531U 88089A   98174.80328993  .00000049  00000-0  50937-4 0  4450
2 19531  99.1097 220.2439 0011750 337.1950  22.8698 14.13192183502487
1 19531U 88089A   98175.01569253  .00000050  00000-0  51609-4 0  4314
2 19531  99.1097 220.4600 0011753 336.5932  23.4706 14.13192235502514
1 19531U 88089A   98175.15729400  .00000060  00000-0  56984-4 0  4368
2 19531  99.1097 220.6043 0011774 336.1584  23.9041 14.13192355502531
1 19531U 88089A   98175.51129820  .00000065  00000-0  59507-4 0  4402
2 19531  99.1096 220.9642 0011771 335.1975  24.8630 14.13192486502582
1 19531U 88089A   98175.86530284  .00000039  00000-0  45556-4 0  4512
2 19531  99.1096 221.3241 0011739 334.1803  25.8776 14.13192310502639
1 19531U 88089A   98176.00690459  .00000039  00000-0  45796-4 0  4325
2 19531  99.1096 221.4682 0011740 333.7784  26.2789 14.13192339502656
1 19531U 88089A   98176.21930675  .00000055  00000-0  53905-4 0  4414
2 19531  99.1096 221.6846 0011727 333.0710  26.9848 14.13192518502682
1 19531U 88089A   98176.50250997  .00000064  00000-0  59074-4 0  4466
2 19531  99.1096 221.9726 0011717 332.2099  27.8446 14.13192677502727
1 19531U 88089A   98176.78571348  .00000050  00000-0  51587-4 0  4558
2 19531  99.1095 222.2605 0011671 331.3363  28.7163 14.13192611502767
1 19531U 88089A   98176.92731531  .00000046  00000-0  49438-4 0  4339
2 19531  99.1095 222.4046 0011660 330.9639  29.0882 14.13192596502783
1 19531U 88089A   98177.13971763  .00000053  00000-0  53022-4 0  4417
2 19531  99.1095 222.6209 0011644 330.2370  29.8137 14.13192696502819
1 19531U 88089A   98177.49372214  .00000041  00000-0  46555-4 0  4478
2 19531  99.1095 222.9809 0011635 329.2602  30.7888 14.13192647502869
1 19531U 88089A   98177.77692587  .00000014  00000-0  32341-4 0  4576
2 19531  99.1094 223.2686 0011633 328.2777  31.7689 14.13192457502909
1 19531U 88089A   98178.13093004  .00000020  00000-0  35606-4 0  4727
2 19531  99.1094 223.6291 0011616 327.1840  32.8609 14.13192543502950
1 19531U 88089A   98178.20173089  .00000021  00000-0  36045-4 0  4344
2 19531  99.1095 223.7011 0011617 326.9767  33.0679 14.13192560502968
1 19531U 88089A   98178.48493434  .00000019  00000-0  34928-4 0  4405
2 19531  99.1094 223.9891 0011616 326.1886  33.8544 14.13192582503007
1 19531U 88089A   98178.76813782  .00000007  00000-0  28241-4 0  4350
2 19531  99.1093 224.2769 0011526 325.2827  34.7589 14.13192509503041
1 19531U 88089A   98179.19294304  .00000007  00000-0  28552-4 0  4435
2 19531  99.1094 224.7093 0011503 324.0433  35.9966 14.13192542503108
1 19531U 88089A   98179.47614642  .00000007  00000-0  28505-4 0  4491
2 19531  99.1093 224.9974 0011498 323.2747  36.7635 14.13192572503148
1 19531U 88089A   98179.83015092 -.00000005  00000-0  22125-4 0  4610
2 19531  99.1093 225.3574 0011481 322.2373  37.7991 14.13192498503193
1 19531U 88089A   98179.97175265 -.00000004  00000-0  22480-4 0  4369
2 19531  99.1093 225.5014 0011482 321.8374  38.1984 14.13192516503212
1 19531U 88089A   98180.11335414  .00000009  00000-0  29437-4 0  4410
2 19531  99.1093 225.6457 0011509 321.3870  38.6480 14.13192650503237
1 19531U 88089A   98180.53815869  .00000036  00000-0  43866-4 0  4527
2 19531  99.1092 226.0778 0011466 320.2575  39.7757 14.13192967503295
1 19531U 88089A   98180.82136203  .00000033  00000-0  42269-4 0  4597
2 19531  99.1092 226.3659 0011440 319.4397  40.5918 14.13192983503332
1 19531U 88089A   98180.89216292  .00000033  00000-0  42411-4 0  4376
2 19531  99.1092 226.4379 0011440 319.2290  40.8025 14.13192996503349
1 19531U 88089A   98181.17536588  .00000050  00000-0  51451-4 0  4442
2 19531  99.1092 226.7265 0011458 318.3437  41.6862 14.13193189503385
1 19531U 88089A   98181.45856892  .00000068  00000-0  60816-4 0  4507
2 19531  99.1092 227.0146 0011430 317.6455  42.3835 14.13193416503425
1 19531U 88089A   98181.81257239  .00000056  00000-0  54504-4 0  4602
2 19531  99.1024 227.3708 0011428 316.5228  43.5038 14.13193781503478
1 19531U 88089A   98181.95417411  .00000055  00000-0  53960-4 0  4386
2 19531  99.1024 227.5147 0011426 316.1302  43.8961 14.13193795503499
1 19531U 88089A   98182.16657634  .00000061  00000-0  57190-4 0  4446
2 19531  99.1024 227.7308 0011425 315.4880  44.5373 14.13193922503523
1 19531U 88089A   98182.52058037  .00000061  00000-0  57503-4 0  4514
2 19531  99.1025 228.0908 0011416 314.5202  45.5037 14.13194002503575
1 19531U 88089A   98182.80378374  .00000051  00000-0  51783-4 0  4584
2 19531  99.1025 228.3787 0011411 313.7050  46.3169 14.13193923503611
1 19531U 88089A   98182.87458468  .00000049  00000-0  51031-4 0  4396
2 19531  99.1024 228.4506 0011408 313.5088  46.5132 14.13193918503622
1 19531U 88089A   98183.15778755  .00000059  00000-0  56329-4 0  4523
2 19531  99.1025 228.7389 0011398 312.5706  47.4503 14.13194101503660
1 19531U 88089A   98183.44099081  .00000057  00000-0  55030-4 0  4585
2 19531  99.1026 229.0269 0011392 311.7617  48.2580 14.13194129503707
1 19531U 88089A   98183.79499491  .00000048  00000-0  50162-4 0  4695
2 19531  99.1025 229.3867 0011378 310.6959  49.3217 14.13194093503758
1 19531U 88089A   98184.07819815  .00000049  00000-0  50721-4 0  4404
2 19531  99.1026 229.6748 0011362 309.8096  50.2074 14.13194156503791
1 19531U 88089A   98184.14899895  .00000049  00000-0  50707-4 0  4435
2 19531  99.1026 229.7468 0011363 309.6094  50.4074 14.13194169503806
1 19531U 88089A   98184.29060058  .00000044  00000-0  48385-4 0  4469
2 19531  99.1026 229.8908 0011358 309.2320  50.7838 14.13194144503824
1 19531U 88089A   98184.78620651  .00000033  00000-0  42272-4 0  4595
2 19531  99.1024 230.3943 0011355 307.7329  52.2809 14.13194107503898
1 19531U 88089A   98185.14021045  .00000036  00000-0  44186-4 0  4519
2 19531  99.1025 230.7544 0011335 306.6051  53.4078 14.13194202503941
1 19531U 88089A   98185.49421466  .00000028  00000-0  39919-4 0  4607
2 19531  99.1026 231.1145 0011315 305.6291  54.3826 14.13194163503999
1 19531U 88089A   98185.77741809  .00000015  00000-0  32659-4 0  4750
2 19531  99.1026 231.4025 0011291 304.6532  55.3571 14.13194055504033
1 19531U 88089A   98186.13142223  .00000012  00000-0  31206-4 0  4570
2 19531  99.1027 231.7627 0011267 303.5513  56.4583 14.13194064504085
1 19531U 88089A   98186.48542631  .00000011  00000-0  30364-4 0  4657
2 19531  99.1028 232.1227 0011260 302.5817  57.4267 14.13194084504134
1 19531U 88089A   98186.76862963  .00000002  00000-0  25756-4 0  4762
2 19531  99.1028 232.4107 0011219 301.6082  58.3991 14.13194025504175
1 19531U 88089A   98186.83943052 -.00000001  00000-0  24089-4 0  4431
2 19531  99.1028 232.4827 0011205 301.3781  58.6290 14.13193999504187
1 19531U 88089A   98186.91023140 -.00000002  00000-0  23656-4 0  4448
2 19531  99.1028 232.5547 0011202 301.1857  58.8214 14.13193997504193
1 19531U 88089A   98187.19343437  .00000005  00000-0  27367-4 0  4594
2 19531  99.1029 232.8429 0011222 300.3257  59.6800 14.13194097504230
1 19531U 88089A   98187.47663774  .00000006  00000-0  27892-4 0  4633
2 19531  99.1030 233.1309 0011212 299.5341  60.4715 14.13194131504273
